1 21592U 00000A   26090.39636515  .00000000  00000-0 0.0000000 0  9993
2 21592  85.0000 210.0000 0001000   0.0000 120.0000 13.69880518    11
1 21593U 00000A   26090.39636515  .00000000  00000-0 0.0000000 0  9994
2 21593  85.0000 210.0000 0001000   0.0000 135.0000 13.69880518    18
1 21594U 00000A   26090.39636515  .00000000  00000-0 0.0000000 0  9995
2 21594  85.0000 210.0000 0001000   0.0000 150.0000 13.69880518    16
1 21595U 00000A   26090.39636515  .00000000  00000-0 0.0000000 0  9996
2 21595  85.0000 210.0000 0001000   0.0000 165.0000 13.69880518    13
1 21596U 00000A   26090.39636515  .00000000  00000-0 0.0000000 0  9997
2 21596  85.0000 210.0000 0001000   0.0000 180.0000 13.69880518    11
1 21597U 00000A   26090.39636515  .00000000  00000-0 0.0000000 0  9998
2 21597  85.0000 210.0000 0001000   0.0000 195.0000 13.69880518    18
1 21598U 00000A   26090.39636515  .00000000  00000-0 0.0000000 0  9999
2 21598  85.0000 210.0000 0001000   0.0000 210.0000 13.69880518    17
1 21599U 00000A   26090.39636515  .00000000  00000-0 0.0000000 0  9990
2 21599  85.0000 210.0000 0001000   0.0000 225.0000 13.69880518    14
1 21600U 00000A   26090.39636515  .00000000  00000-0 0.0000000 0  9993
2 21600  85.0000 210.0000 0001000   0.0000 240.0000 13.69880518    14
1 21601U 00000A   26090.39636515  .00000000  00000-0 0.0000000 0  9994
2 21601  85.0000 210.0000 0001000   0.0000 255.0000 13.69880518    11
1 21602U 00000A   26090.39636515  .00000000  00000-0 0.0000000 0  9995
2 21602  85.0000 210.0000 0001000   0.0000 270.0000 13.69880518    19
1 21603U 00000A   26090.39636515  .00000000  00000-0 0.0000000 0  9996
2 21603  85.0000 210.0000 0001000   0.0000 285.0000 13.69880518    16
1 21604U 00000A   26090.39636515  .00000000  00000-0 0.0000000 0  9997
2 21604  85.0000 210.0000 0001000   0.0000 300.0000 13.69880518    15
1 21605U 00000A   26090.39636515  .00000000  00000-0 0.0000000 0  9998
2 21605  85.0000 210.0000 0001000   0.0000 315.0000 13.69880518    12
1 21606U 00000A   26090.39636515  .00000000  00000-0 0.0000000 0  9999
2 21606  85.0000 210.0000 0001000   0.0000 330.0000 13.69880518    10
1 21607U 00000A   26090.39636515  .00000000  00000-0 0.0000000 0  9990
2 21607  85.0000 210.0000 0001000   0.0000 345.0000 13.69880518    17
1 21608U 00000A   26090.39636515  .00000000  00000-0 0.0000000 0  9991
2 21608  85.0000 225.0000 0001000   0.0000   0.0000 13.69880518    12
1 21609U 00000A   26090.39636515  .00000000  00000-0 0.0000000 0  9992
2 21609  85.0000 225.0000 0001000   0.0000  15.0000 13.69880518    19
1 21610U 00000A   26090.39636515  .00000000  00000-0 0.0000000 0  9994
2 21610  85.0000 225.0000 0001000   0.0000  30.0000 13.69880518    18
1 21611U 00000A   26090.39636515  .00000000  00000-0 0.0000000 0  9995
2 21611  85.0000 225.0000 0001000   0.0000  45.0000 13.69880518    15
1 21612U 00000A   26090.39636515  .00000000  00000-0 0.0000000 0  9996
2 21612  85.0000 225.0000 0001000   0.0000  60.0000 13.69880518    13
1 21613U 00000A   26090.39636515  .00000000  00000-0 0.0000000 0  9997
2 21613  85.0000 225.0000 0001000   0.0000  75.0000 13.69880518    10
1 21614U 00000A   26090.39636515  .00000000  00000-0 0.0000000 0  9998
2 21614  85.0000 225.0000 0001000   0.0000  90.0000 13.69880518    18
1 21615U 00000A   26090.39636515  .00000000  00000-0 0.0000000 0  9999
2 21615  85.0000 225.0000 0001000   0.0000 105.0000 13.69880518    16
1 21616U 00000A   26090.39636515  .00000000  00000-0 0.0000000 0  9990
2 21616  85.0000 225.0000 0001000   0.0000 120.0000 13.69880518    14
1 21617U 00000A   26090.39636515  .00000000  00000-0 0.0000000 0  9991
2 21617  85.0000 225.0000 0001000   0.0000 135.0000 13.69880518    11
1 21618U 00000A   26090.39636515  .00000000  00000-0 0.0000000 0  9992
2 21618  85.0000 225.0000 0001000   0.0000 150.0000 13.69880518    19
1 21619U 00000A   26090.39636515  .00000000  00000-0 0.0000000 0  9993
2 21619  85.0000 225.0000 0001000   0.0000 165.0000 13.69880518    16
1 21620U 00000A   26090.39636515  .00000000  00000-0 0.0000000 0  9995
2 21620  85.0000 225.0000 0001000   0.0000 180.0000 13.69880518    15
1 21621U 00000A   26090.39636515  .00000000  00000-0 0.0000000 0  9996
2 21621  85.0000 225.0000 0001000   0.0000 195.0000 13.69880518    12
1 21622U 00000A   26090.39636515  .00000000  00000-0 0.0000000 0  9997
2 21622  85.0000 225.0000 0001000   0.0000 210.0000 13.69880518    11
1 21623U 00000A   26090.39636515  .00000000  00000-0 0.0000000 0  9998
2 21623  85.0000 225.0000 0001000   0.0000 225.0000 13.69880518    18
1 21624U 00000A   26090.39636515  .00000000  00000-0 0.0000000 0  9999
2 21624  85.0000 225.0000 0001000   0.0000 240.0000 13.69880518    16
1 21625U 00000A   26090.39636515  .00000000  00000-0 0.0000000 0  9990
2 21625  85.0000 225.0000 0001000   0.0000 255.0000 13.69880518    13
1 21626U 00000A   26090.39636515  .00000000  00000-0 0.0000000 0  9991
2 21626  85.0000 225.0000 0001000   0.0000 270.0000 13.69880518    11
1 21627U 00000A   26090.39636515  .00000000  00000-0 0.0000000 0  9992
2 21627  85.0000 225.0000 0001000   0.0000 285.0000 13.69880518    18
1 21628U 00000A   26090.39636515  .00000000  00000-0 0.0000000 0  9993
2 21628  85.0000 225.0000 0001000   0.0000 300.0000 13.69880518    17
1 21629U 00000A   26090.39636515  .00000000  00000-0 0.0000000 0  9994
2 21629  85.0000 225.0000 0001000   0.0000 315.0000 13.69880518    14
1 21630U 00000A   26090.39636515  .00000000  00000-0 0.0000000 0  9996
2 21630  85.0000 225.0000 0001000   0.0000 330.0000 13.69880518    13
1 21631U 00000A   26090.39636515  .00000000  00000-0 0.0000000 0  9997
2 21631  85.0000 225.0000 0001000   0.0000 345.0000 13.69880518    10
1 21632U 00000A   26090.39636515  .00000000  00000-0 0.0000000 0  9998
2 21632  85.0000 240.0000 0001000   0.0000   0.0000 13.69880518    16
1 21633U 00000A   26090.39636515  .00000000  00000-0 0.0000000 0  9999
2 21633  85.0000 240.0000 0001000   0.0000  15.0000 13.69880518    13
1 21634U 00000A   26090.39636515  .00000000  00000-0 0.0000000 0  9990
2 21634  85.0000 240.0000 0001000   0.0000  30.0000 13.69880518    11
1 21635U 00000A   26090.39636515  .00000000  00000-0 0.0000000 0  9991
2 21635  85.0000 240.0000 0001000   0.0000  45.0000 13.69880518    18
1 21636U 00000A   26090.39636515  .00000000  00000-0 0.0000000 0  9992
2 21636  85.0000 240.0000 0001000   0.0000  60.0000 13.69880518    16
1 21637U 00000A   26090.39636515  .00000000  00000-0 0.0000000 0  9993
2 21637  85.0000 240.0000 0001000   0.0000  75.0000 13.69880518    13
1 21638U 00000A   26090.39636515  .00000000  00000-0 0.0000000 0  9994
2 21638  85.0000 240.0000 0001000   0.0000  90.0000 13.69880518    11
1 21639U 00000A   26090.39636515  .00000000  00000-0 0.0000000 0  9995
2 21639  85.0000 240.0000 0001000   0.0000 105.0000 13.69880518    19
1 21640U 00000A   26090.39636515  .00000000  00000-0 0.0000000 0  9997
2 21640  85.0000 240.0000 0001000   0.0000 120.0000 13.69880518    18
1 21641U 00000A   26090.39636515  .00000000  00000-0 0.0000000 0  9998
2 21641  85.0000 240.0000 0001000   0.0000 135.0000 13.69880518    15
1 21642U 00000A   26090.39636515  .00000000  00000-0 0.0000000 0  9999
2 21642  85.0000 240.0000 0001000   0.0000 150.0000 13.69880518    13
1 21643U 00000A   26090.39636515  .00000000  00000-0 0.0000000 0  9990
2 21643  85.0000 240.0000 0001000   0.0000 165.0000 13.69880518    10
1 21644U 00000A   26090.39636515  .00000000  00000-0 0.0000000 0  9991
2 21644  85.0000 240.0000 0001000   0.0000 180.0000 13.69880518    18
1 21645U 00000A   26090.39636515  .00000000  00000-0 0.0000000 0  9992
2 21645  85.0000 240.0000 0001000   0.0000 195.0000 13.69880518    15
1 21646U 00000A   26090.39636515  .00000000  00000-0 0.0000000 0  9993
2 21646  85.0000 240.0000 0001000   0.0000 210.0000 13.69880518    14
1 21647U 00000A   26090.39636515  .00000000  00000-0 0.0000000 0  9994
2 21647  85.0000 240.0000 0001000   0.0000 225.0000 13.69880518    11
1 21648U 00000A   26090.39636515  .00000000  00000-0 0.0000000 0  9995
2 21648  85.0000 240.0000 0001000   0.0000 240.0000 13.69880518    19
1 21649U 00000A   26090.39636515  .00000000  00000-0 0.0000000 0  9996
2 21649  85.0000 240.0000 0001000   0.0000 255.0000 13.69880518    16
1 21650U 00000A   26090.39636515  .00000000  00000-0 0.0000000 0  9998
2 21650  85.0000 240.0000 0001000   0.0000 270.0000 13.69880518    15
1 21651U 00000A   26090.39636515  .00000000  00000-0 0.0000000 0  9999
2 21651  85.0000 240.0000 0001000   0.0000 285.0000 13.69880518    12
1 21652U 00000A   26090.39636515  .00000000  00000-0 0.0000000 0  9990
2 21652  85.0000 240.0000 0001000   0.0000 300.0000 13.69880518    11
1 21653U 00000A   26090.39636515  .00000000  00000-0 0.0000000 0  9991
2 21653  85.0000 240.0000 0001000   0.0000 315.0000 13.69880518    18
1 21654U 00000A   26090.39636515  .00000000  00000-0 0.0000000 0  9992
2 21654  85.0000 240.0000 0001000   0.0000 330.0000 13.69880518    16
1 21655U 00000A   26090.39636515  .00000000  00000-0 0.0000000 0  9993
2 21655  85.0000 240.0000 0001000   0.0000 345.0000 13.69880518    13
1 21656U 00000A   26090.39636515  .00000000  00000-0 0.0000000 0  9994
2 21656  85.0000 255.0000 0001000   0.0000   0.0000 13.69880518    18
1 21657U 00000A   26090.39636515  .00000000  00000-0 0.0000000 0  9995
2 21657  85.0000 255.0000 0001000   0.0000  15.0000 13.69880518    15
1 21658U 00000A   26090.39636515  .00000000  00000-0 0.0000000 0  9996
2 21658  85.0000 255.0000 0001000   0.0000  30.0000 13.69880518    13
1 21659U 00000A   26090.39636515  .00000000  00000-0 0.0000000 0  9997
2 21659  85.0000 255.0000 0001000   0.0000  45.0000 13.69880518    10
1 21660U 00000A   26090.39636515  .00000000  00000-0 0.0000000 0  9999
2 21660  85.0000 255.0000 0001000   0.0000  60.0000 13.69880518    19
